ZACUBE-1 (TSHEPISOSAT)  
1 39417U 13066B   25172.35268091  .00003782  00000+0  32952-3 0  9994
2 39417  97.7796 129.3027 0044354  15.2025 345.0517 14.96752793626675
GOMX-1                  
1 39430U 13066Q   25172.89436690  .00001461  00000+0  23252-3 0  9995
2 39430  97.6825  30.8026 0133018 152.4465 208.3875 14.67679652617213
CUBEBUG-2 (LO-74)       
1 39440U 13066AA  25172.76587997  .00001902  00000+0  19596-3 0  9995
2 39440  97.8496 117.2420 0062953 138.7088 221.8915 14.89999894624451
FUNCUBE-1 (AO-73)       
1 39444U 13066AE  25172.53509598  .00004413  00000+0  33111-3 0  9994
2 39444  97.7815 134.4974 0041725 349.2016  10.8309 15.02484456625383
UWE-3                   
1 39446U 13066AG  25172.60086234  .00003281  00000+0  31235-3 0  9998
2 39446  97.8238 123.4572 0054805  79.6086 281.1304 14.92980520624299
UNISAT-6                
1 40012U 14033C   25172.40461862  .00002261  00000+0  26424-3 0  9997
2 40012  97.7431 328.2671 0047989 174.3385 185.8383 14.85283330592556
DUCHIFAT-1              
1 40021U 14033M   25172.50294041  .00014442  00000+0  51498-3 0  9994
2 40021  98.0943 187.8789 0006604 273.1472  86.9010 15.29007241600148
QB50P1                  
1 40025U 14033R   25172.46573418  .00004759  00000+0  29163-3 0  9995
2 40025  98.0825 155.7196 0010953  25.0148 335.1609 15.10651590598436
LILACSAT-2              
1 40908U 15049K   25172.83284373  .00008897  00000+0  23094-3 0  9997
2 40908  97.5052 193.4757 0011052 113.6674 246.5733 15.39164276540119
LAPAN-A2 (IO-86)        
1 40931U 15052B   25151.18580175  .00001241  00000+0  78118-4 0  9995
2 40931   6.0006  24.0987 0012733 338.8432  21.1169 14.78805930523047
FOX-1A (AO-85)          
1 40967U 15058D   25172.42768103  .00003530  00000+0  31742-3 0  9993
2 40967  64.7765 317.7600 0159409 191.6540 168.0866 14.88112983 59836
CAS-2T & KS-1Q          
1 41847U 16066G   25172.67426850  .00001412  00000+0  20784-3 0  9999
2 41847  98.4198 247.0313 0346899 141.7862 220.8476 14.43520045452764
ZHUHAI-1 02 (CAS-4B)    
1 42759U 17034B   25172.66438117  .00051633  00000+0  50939-3 0  9991
2 42759  43.0062 249.7724 0020307  10.7895 349.3402 15.64866771444492
ZHUHAI-1 01 (CAS-4A)    
1 42761U 17034D   25172.68731051  .00055949  00000+0  52183-3 0  9996
2 42761  43.0100 246.6543 0021432  15.7070 344.4457 15.66204285444521
