[
  {
    "OBJECT_NAME": "ZACUBE-1 (TSHEPISOSAT)",
    "OBJECT_ID": "2013-066B",
    "EPOCH": "2025-06-21T08:27:51.630624",
    "MEAN_MOTION": 14.96752793,
    "ECCENTRICITY": 0.0044354,
    "INCLINATION": 97.7796,
    "RA_OF_ASC_NODE": 129.3027,
    "ARG_OF_PERICENTER": 15.2025,
    "MEAN_ANOMALY": 345.0517,
    "EPHEMERIS_TYPE": 0,
    "CLASSIFICATION_TYPE": "U",
    "NORAD_CAT_ID": 39417,
    "ELEMENT_SET_NO": 999,
    "REV_AT_EPOCH": 62667,
    "BSTAR": 0.00032952,
    "MEAN_MOTION_DOT": 3.782e-05,
    "MEAN_MOTION_DDOT": 0
  },
  {
    "OBJECT_NAME": "GOMX-1",
    "OBJECT_ID": "2013-066Q",
    "EPOCH": "2025-06-21T21:27:53.300160",
    "MEAN_MOTION": 14.67679652,
    "ECCENTRICITY": 0.0133018,
    "INCLINATION": 97.6825,
    "RA_OF_ASC_NODE": 30.8026,
    "ARG_OF_PERICENTER": 152.4465,
    "MEAN_ANOMALY": 208.3875,
    "EPHEMERIS_TYPE": 0,
    "CLASSIFICATION_TYPE": "U",
    "NORAD_CAT_ID": 39430,
    "ELEMENT_SET_NO": 999,
    "REV_AT_EPOCH": 61721,
    "BSTAR": 0.00023252,
    "MEAN_MOTION_DOT": 1.461e-05,
    "MEAN_MOTION_DDOT": 0
  },
  {
    "OBJECT_NAME": "CUBEBUG-2 (LO-74)",
    "OBJECT_ID": "2013-066AA",
    "EPOCH": "2025-06-21T18:22:52.029408",
    "MEAN_MOTION": 14.89999894,
    "ECCENTRICITY": 0.0062953,
    "INCLINATION": 97.8496,
    "RA_OF_ASC_NODE": 117.242,
    "ARG_OF_PERICENTER": 138.7088,
    "MEAN_ANOMALY": 221.8915,
    "EPHEMERIS_TYPE": 0,
    "CLASSIFICATION_TYPE": "U",
    "NORAD_CAT_ID": 39440,
    "ELEMENT_SET_NO": 999,
    "REV_AT_EPOCH": 62445,
    "BSTAR": 0.00019596,
    "MEAN_MOTION_DOT": 1.902e-05,
    "MEAN_MOTION_DDOT": 0
  },
  {
    "OBJECT_NAME": "FUNCUBE-1 (AO-73)",
    "OBJECT_ID": "2013-066AE",
    "EPOCH": "2025-06-21T12:50:32.292672",
    "MEAN_MOTION": 15.02484456,
    "ECCENTRICITY": 0.0041725,
    "INCLINATION": 97.7815,
    "RA_OF_ASC_NODE": 134.4974,
    "ARG_OF_PERICENTER": 349.2016,
    "MEAN_ANOMALY": 10.8309,
    "EPHEMERIS_TYPE": 0,
    "CLASSIFICATION_TYPE": "U",
    "NORAD_CAT_ID": 39444,
    "ELEMENT_SET_NO": 999,
    "REV_AT_EPOCH": 62538,
    "BSTAR": 0.00033111,
    "MEAN_MOTION_DOT": 4.413e-05,
    "MEAN_MOTION_DDOT": 0
  },
  {
    "OBJECT_NAME": "UWE-3",
    "OBJECT_ID": "2013-066AG",
    "EPOCH": "2025-06-21T14:25:14.506176",
    "MEAN_MOTION": 14.9298052,
    "ECCENTRICITY": 0.0054805,
    "INCLINATION": 97.8238,
    "RA_OF_ASC_NODE": 123.4572,
    "ARG_OF_PERICENTER": 79.6086,
    "MEAN_ANOMALY": 281.1304,
    "EPHEMERIS_TYPE": 0,
    "CLASSIFICATION_TYPE": "U",
    "NORAD_CAT_ID": 39446,
    "ELEMENT_SET_NO": 999,
    "REV_AT_EPOCH": 62429,
    "BSTAR": 0.00031235,
    "MEAN_MOTION_DOT": 3.281e-05,
    "MEAN_MOTION_DDOT": 0
  },
  {
    "OBJECT_NAME": "UNISAT-6",
    "OBJECT_ID": "2014-033C",
    "EPOCH": "2025-06-21T09:42:39.048768",
    "MEAN_MOTION": 14.8528333,
    "ECCENTRICITY": 0.0047989,
    "INCLINATION": 97.7431,
    "RA_OF_ASC_NODE": 328.2671,
    "ARG_OF_PERICENTER": 174.3385,
    "MEAN_ANOMALY": 185.8383,
    "EPHEMERIS_TYPE": 0,
    "CLASSIFICATION_TYPE": "U",
    "NORAD_CAT_ID": 40012,
    "ELEMENT_SET_NO": 999,
    "REV_AT_EPOCH": 59255,
    "BSTAR": 0.00026424,
    "MEAN_MOTION_DOT": 2.261e-05,
    "MEAN_MOTION_DDOT": 0
  },
  {
    "OBJECT_NAME": "DUCHIFAT-1",
    "OBJECT_ID": "2014-033M",
    "EPOCH": "2025-06-21T12:04:14.051424",
    "MEAN_MOTION": 15.29007241,
    "ECCENTRICITY": 0.0006604,
    "INCLINATION": 98.0943,
    "RA_OF_ASC_NODE": 187.8789,
    "ARG_OF_PERICENTER": 273.1472,
    "MEAN_ANOMALY": 86.901,
    "EPHEMERIS_TYPE": 0,
    "CLASSIFICATION_TYPE": "U",
    "NORAD_CAT_ID": 40021,
    "ELEMENT_SET_NO": 999,
    "REV_AT_EPOCH": 60014,
    "BSTAR": 0.00051498,
    "MEAN_MOTION_DOT": 0.00014442,
    "MEAN_MOTION_DDOT": 0
  },
  {
    "OBJECT_NAME": "QB50P1",
    "OBJECT_ID": "2014-033R",
    "EPOCH": "2025-06-21T11:10:39.433152",
    "MEAN_MOTION": 15.1065159,
    "ECCENTRICITY": 0.0010953,
    "INCLINATION": 98.0825,
    "RA_OF_ASC_NODE": 155.7196,
    "ARG_OF_PERICENTER": 25.0148,
    "MEAN_ANOMALY": 335.1609,
    "EPHEMERIS_TYPE": 0,
    "CLASSIFICATION_TYPE": "U",
    "NORAD_CAT_ID": 40025,
    "ELEMENT_SET_NO": 999,
    "REV_AT_EPOCH": 59843,
    "BSTAR": 0.00029163,
    "MEAN_MOTION_DOT": 4.759e-05,
    "MEAN_MOTION_DDOT": 0
  },
  {
    "OBJECT_NAME": "LILACSAT-2",
    "OBJECT_ID": "2015-049K",
    "EPOCH": "2025-06-21T19:59:17.698272",
    "MEAN_MOTION": 15.39164276,
    "ECCENTRICITY": 0.0011052,
    "INCLINATION": 97.5052,
    "RA_OF_ASC_NODE": 193.4757,
    "ARG_OF_PERICENTER": 113.6674,
    "MEAN_ANOMALY": 246.5733,
    "EPHEMERIS_TYPE": 0,
    "CLASSIFICATION_TYPE": "U",
    "NORAD_CAT_ID": 40908,
    "ELEMENT_SET_NO": 999,
    "REV_AT_EPOCH": 54011,
    "BSTAR": 0.00023094,
    "MEAN_MOTION_DOT": 8.897e-05,
    "MEAN_MOTION_DDOT": 0
  },
  {
    "OBJECT_NAME": "LAPAN-A2 (IO-86)",
    "OBJECT_ID": "2015-052B",
    "EPOCH": "2025-05-31T04:27:33.271200",
    "MEAN_MOTION": 14.7880593,
    "ECCENTRICITY": 0.0012733,
    "INCLINATION": 6.0006,
    "RA_OF_ASC_NODE": 24.0987,
    "ARG_OF_PERICENTER": 338.8432,
    "MEAN_ANOMALY": 21.1169,
    "EPHEMERIS_TYPE": 0,
    "CLASSIFICATION_TYPE": "U",
    "NORAD_CAT_ID": 40931,
    "ELEMENT_SET_NO": 999,
    "REV_AT_EPOCH": 52304,
    "BSTAR": 7.8118e-05,
    "MEAN_MOTION_DOT": 1.241e-05,
    "MEAN_MOTION_DDOT": 0
  },
  {
    "OBJECT_NAME": "FOX-1A (AO-85)",
    "OBJECT_ID": "2015-058D",
    "EPOCH": "2025-06-21T10:15:51.640992",
    "MEAN_MOTION": 14.88112983,
    "ECCENTRICITY": 0.0159409,
    "INCLINATION": 64.7765,
    "RA_OF_ASC_NODE": 317.76,
    "ARG_OF_PERICENTER": 191.654,
    "MEAN_ANOMALY": 168.0866,
    "EPHEMERIS_TYPE": 0,
    "CLASSIFICATION_TYPE": "U",
    "NORAD_CAT_ID": 40967,
    "ELEMENT_SET_NO": 999,
    "REV_AT_EPOCH": 5983,
    "BSTAR": 0.00031742,
    "MEAN_MOTION_DOT": 3.53e-05,
    "MEAN_MOTION_DDOT": 0
  },
  {
    "OBJECT_NAME": "CAS-2T & KS-1Q",
    "OBJECT_ID": "2016-066G",
    "EPOCH": "2025-06-21T16:10:56.798400",
    "MEAN_MOTION": 14.43520045,
    "ECCENTRICITY": 0.0346899,
    "INCLINATION": 98.4198,
    "RA_OF_ASC_NODE": 247.0313,
    "ARG_OF_PERICENTER": 141.7862,
    "MEAN_ANOMALY": 220.8476,
    "EPHEMERIS_TYPE": 0,
    "CLASSIFICATION_TYPE": "U",
    "NORAD_CAT_ID": 41847,
    "ELEMENT_SET_NO": 999,
    "REV_AT_EPOCH": 45276,
    "BSTAR": 0.00020784,
    "MEAN_MOTION_DOT": 1.412e-05,
    "MEAN_MOTION_DDOT": 0
  },
  {
    "OBJECT_NAME": "ZHUHAI-1 02 (CAS-4B)",
    "OBJECT_ID": "2017-034B",
    "EPOCH": "2025-06-21T15:56:42.533088",
    "MEAN_MOTION": 15.64866771,
    "ECCENTRICITY": 0.0020307,
    "INCLINATION": 43.0062,
    "RA_OF_ASC_NODE": 249.7724,
    "ARG_OF_PERICENTER": 10.7895,
    "MEAN_ANOMALY": 349.3402,
    "EPHEMERIS_TYPE": 0,
    "CLASSIFICATION_TYPE": "U",
    "NORAD_CAT_ID": 42759,
    "ELEMENT_SET_NO": 999,
    "REV_AT_EPOCH": 44449,
    "BSTAR": 0.00050939,
    "MEAN_MOTION_DOT": 0.00051633,
    "MEAN_MOTION_DDOT": 0
  },
  {
    "OBJECT_NAME": "ZHUHAI-1 01 (CAS-4A)",
    "OBJECT_ID": "2017-034D",
    "EPOCH": "2025-06-21T16:29:43.628064",
    "MEAN_MOTION": 15.66204285,
    "ECCENTRICITY": 0.0021432,
    "INCLINATION": 43.01,
    "RA_OF_ASC_NODE": 246.6543,
    "ARG_OF_PERICENTER": 15.707,
    "MEAN_ANOMALY": 344.4457,
    "EPHEMERIS_TYPE": 0,
    "CLASSIFICATION_TYPE": "U",
    "NORAD_CAT_ID": 42761,
    "ELEMENT_SET_NO": 999,
    "REV_AT_EPOCH": 44452,
    "BSTAR": 0.00052183,
    "MEAN_MOTION_DOT": 0.00055949,
    "MEAN_MOTION_DDOT": 0
  }
]